OBJECT_NAME,OBJECT_ID,EPOCH,MEAN_MOTION,ECCENTRICITY,INCLINATION,RA_OF_ASC_NODE,ARG_OF_PERICENTER,MEAN_ANOMALY,EPHEMERIS_TYPE,CLASSIFICATION_TYPE,NORAD_CAT_ID,ELEMENT_SET_NO,REV_AT_EPOCH,BSTAR,MEAN_MOTION_DOT,MEAN_MOTION_DDOT
ONEWEB-0618,2023-004V,2026-06-09T02:56:31.679232,15.13084360,.0010623,86.9107,180.9086,335.9145,24.1596,0,U,55159,999,18104,.20614E-3,.3683E-4,0
ONEWEB-0619,2023-004W,2026-06-09T03:01:14.613312,13.17648269,.0002093,87.9149,7.4517,75.9276,284.2088,0,U,55160,999,16653,-.81173E-4,-.19E-6,0
ONEWEB-0620,2023-004X,2026-06-09T03:02:56.897088,13.11420187,.0001804,87.8895,22.6820,92.8206,267.3129,0,U,55161,999,16477,.1935E-3,.81E-6,0
ONEWEB-0621,2023-004Y,2026-06-09T01:52:09.568128,13.11415839,.0002036,87.8902,22.6795,82.4999,277.6360,0,U,55162,999,16474,.12181E-2,.444E-5,0
ONEWEB-0622,2023-004Z,2026-06-09T01:59:29.180832,13.11415269,.0002471,87.8904,22.6809,93.9333,266.2077,0,U,55163,999,16473,.73882E-3,.275E-5,0
ONEWEB-0623,2023-004AA,2026-06-09T01:04:35.882400,13.17648976,.0002614,87.9137,7.4988,82.3690,277.7739,0,U,55164,999,16651,.27646E-4,.24E-6,0
ONEWEB-0624,2023-004AB,2026-06-09T00:58:21.726336,13.12928575,.0001903,87.8945,352.2074,87.6379,272.4967,0,U,55165,999,16700,-.43894E-4,-.3E-7,0
ONEWEB-0625,2023-004AC,2026-06-09T02:39:22.452192,13.17648653,.0001737,87.9139,7.4812,82.5948,277.5381,0,U,55166,999,16651,-.29044E-4,.2E-7,0
ONEWEB-0626,2023-004AD,2026-06-09T02:24:48.002112,13.17649262,.0001683,87.9138,7.4829,99.8218,260.3104,0,U,55167,999,16651,.23594E-3,.104E-5,0
ONEWEB-0627,2023-004AE,2026-06-09T02:07:45.922944,13.17647440,.0002351,87.9137,7.4858,83.6652,276.4748,0,U,55168,999,16651,-.44251E-4,-.4E-7,0
ONEWEB-0628,2023-004AF,2026-06-09T02:17:03.228000,13.12443276,.0002478,87.8948,352.2627,82.1491,277.9919,0,U,55169,999,16697,-.13174E-2,-.461E-5,0
ONEWEB-0629,2023-004AG,2026-06-09T01:32:31.652736,13.17650924,.0001991,87.9135,7.4871,78.1231,282.0123,0,U,55170,999,16651,.9304E-4,.49E-6,0
ONEWEB-0631,2023-004AH,2026-06-08T23:35:04.423776,13.18684303,.0002094,87.9167,337.0684,104.3244,255.8121,0,U,55171,999,16859,.52651E-4,.34E-6,0
ONEWEB-0709,2023-004AJ,2026-06-09T02:48:17.676000,13.11417704,.0001443,87.8892,22.6862,112.6542,247.4739,0,U,55172,999,16481,-.15441E-2,-.535E-5,0
ONEWEB-0710,2023-004AK,2026-06-09T01:53:11.935104,13.17648687,.0002016,87.9136,7.4793,87.8447,272.2915,0,U,55173,999,16651,.70331E-4,.4E-6,0
ONEWEB-0711,2023-004AL,2026-06-09T02:06:49.274784,13.11416121,.0002552,87.8894,22.6787,86.6644,273.4776,0,U,55174,999,16477,.47761E-4,.3E-6,0
ONEWEB-0713,2023-004AM,2026-06-09T02:33:39.115008,13.11416533,.0002213,87.8896,22.6768,86.1261,274.0120,0,U,55175,999,16476,-.1863E-2,-.648E-5,0
ONEWEB-0715,2023-004AN,2026-06-09T02:26:19.762368,13.11417192,.0001788,87.8894,22.6784,106.7964,253.3361,0,U,55176,999,16480,-.1409E-2,-.487E-5,0
ONEWEB-0716,2023-004AP,2026-06-09T01:43:28.729056,13.17648974,.000167,87.9139,7.4832,80.6537,279.4783,0,U,55177,999,16651,.36619E-4,.27E-6,0
ONEWEB-0717,2023-004AQ,2026-06-09T01:19:10.470720,13.17648005,.000238,87.9148,7.4735,92.7979,267.3425,0,U,55178,999,16656,.41282E-4,.29E-6,0
ONEWEB-0719,2023-004AR,2026-06-09T01:33:45.898848,13.17648451,.0001824,87.9145,7.4523,80.1446,279.9891,0,U,55179,999,16651,-.52413E-5,.11E-6,0
ONEWEB-0530,2023-029A,2026-06-08T19:58:43.113216,13.20770722,.000236,87.9180,276.1348,95.3669,264.7733,0,U,55796,999,16004,.62301E-4,.38E-6,0
ONEWEB-0534,2023-029B,2026-06-08T19:41:44.536704,13.20770803,.000183,87.9182,276.1379,99.1857,260.9483,0,U,55797,999,16004,.31583E-4,.26E-6,0
ONEWEB-0556,2023-029C,2026-06-08T19:51:27.208800,13.20772450,.0001909,87.9179,276.1361,74.8760,285.2584,0,U,55798,999,16004,.11068E-4,.17E-6,0
ONEWEB-0562,2023-029D,2026-06-08T19:32:02.167008,13.20770129,.0002503,87.9179,276.1198,83.4987,276.6431,0,U,55799,999,16004,.21441E-3,.1E-5,0
ONEWEB-0563,2023-029E,2026-06-09T00:52:03.205344,13.20771851,.0001707,87.9177,276.1058,100.1820,259.9506,0,U,55800,999,16006,.11237E-3,.59E-6,0
ONEWEB-0564,2023-029F,2026-06-08T21:04:10.303392,13.20770098,.0002237,87.9180,276.1108,92.5976,267.5413,0,U,55801,999,16005,.19298E-4,.21E-6,0
ONEWEB-0638,2023-029G,2026-06-09T02:18:34.485408,13.14502773,.0001937,87.8947,291.3655,83.5666,276.5684,0,U,55802,999,15833,-.41793E-3,-.142E-5,0
ONEWEB-0639,2023-029H,2026-06-09T03:31:38.258112,13.19725127,.0000952,87.9162,306.5783,115.7876,244.3355,0,U,55803,999,15784,-.36699E-4,-.2E-7,0
ONEWEB-0640,2023-029J,2026-06-09T02:32:16.507968,13.14502561,.0001575,87.8947,291.3545,78.3466,281.7840,0,U,55804,999,15835,.22006E-3,.94E-6,0
ONEWEB-0641,2023-029K,2026-06-09T03:24:47.962656,13.19724324,.0001687,87.9169,306.5678,100.1443,259.9880,0,U,55805,999,15785,.23774E-3,.108E-5,0
