ONEWEB-0618             
1 55159U 23004V   26160.12258888  .00003683  00000+0  20614-3 0  9996
2 55159  86.9107 180.9086 0010623 335.9145  24.1596 15.13084360181044
ONEWEB-0619             
1 55160U 23004W   26160.12586358 -.00000019  00000+0 -81173-4 0  9994
2 55160  87.9149   7.4517 0002093  75.9276 284.2088 13.17648269166531
ONEWEB-0620             
1 55161U 23004X   26160.12704742  .00000081  00000+0  19350-3 0  9998
2 55161  87.8895  22.6820 0001804  92.8206 267.3129 13.11420187164778
ONEWEB-0621             
1 55162U 23004Y   26160.07788852  .00000444  00000+0  12181-2 0  9994
2 55162  87.8902  22.6795 0002036  82.4999 277.6360 13.11415839164747
ONEWEB-0622             
1 55163U 23004Z   26160.08297663  .00000275  00000+0  73882-3 0  9999
2 55163  87.8904  22.6809 0002471  93.9333 266.2077 13.11415269164733
ONEWEB-0623             
1 55164U 23004AA  26160.04485975  .00000024  00000+0  27646-4 0  9991
2 55164  87.9137   7.4988 0002614  82.3690 277.7739 13.17648976166518
ONEWEB-0624             
1 55165U 23004AB  26160.04052924 -.00000003  00000+0 -43894-4 0  9998
2 55165  87.8945 352.2074 0001903  87.6379 272.4967 13.12928575167005
ONEWEB-0625             
1 55166U 23004AC  26160.11067653  .00000002  00000+0 -29044-4 0  9991
2 55166  87.9139   7.4812 0001737  82.5948 277.5381 13.17648653166514
ONEWEB-0626             
1 55167U 23004AD  26160.10055558  .00000104  00000+0  23594-3 0  9997
2 55167  87.9138   7.4829 0001683  99.8218 260.3104 13.17649262166513
ONEWEB-0627             
1 55168U 23004AE  26160.08872596 -.00000004  00000+0 -44251-4 0  9999
2 55168  87.9137   7.4858 0002351  83.6652 276.4748 13.17647440166519
ONEWEB-0628             
1 55169U 23004AF  26160.09517625 -.00000461  00000+0 -13174-2 0  9995
2 55169  87.8948 352.2627 0002478  82.1491 277.9919 13.12443276166971
ONEWEB-0629             
1 55170U 23004AG  26160.06425524  .00000049  00000+0  93040-4 0  9992
2 55170  87.9135   7.4871 0001991  78.1231 282.0123 13.17650924166517
ONEWEB-0631             
1 55171U 23004AH  26159.98269009  .00000034  00000+0  52651-4 0  9993
2 55171  87.9167 337.0684 0002094 104.3244 255.8121 13.18684303168593
ONEWEB-0709             
1 55172U 23004AJ  26160.11687125 -.00000535  00000+0 -15441-2 0  9996
2 55172  87.8892  22.6862 0001443 112.6542 247.4739 13.11417704164818
ONEWEB-0710             
1 55173U 23004AK  26160.07861036  .00000040  00000+0  70331-4 0  9997
2 55173  87.9136   7.4793 0002016  87.8447 272.2915 13.17648687166512
ONEWEB-0711             
1 55174U 23004AL  26160.08807031  .00000030  00000+0  47761-4 0  9994
2 55174  87.8894  22.6787 0002552  86.6644 273.4776 13.11416121164770
ONEWEB-0713             
1 55175U 23004AM  26160.10670272 -.00000648  00000+0 -18630-2 0  9991
2 55175  87.8896  22.6768 0002213  86.1261 274.0120 13.11416533164762
ONEWEB-0715             
1 55176U 23004AN  26160.10161762 -.00000487  00000+0 -14090-2 0  9998
2 55176  87.8894  22.6784 0001788 106.7964 253.3361 13.11417192164808
ONEWEB-0716             
1 55177U 23004AP  26160.07186029  .00000027  00000+0  36619-4 0  9999
2 55177  87.9139   7.4832 0001670  80.6537 279.4783 13.17648974166510
ONEWEB-0717             
1 55178U 23004AQ  26160.05498230  .00000029  00000+0  41282-4 0  9992
2 55178  87.9148   7.4735 0002380  92.7979 267.3425 13.17648005166565
ONEWEB-0719             
1 55179U 23004AR  26160.06511457  .00000011  00000+0 -52413-5 0  9992
2 55179  87.9145   7.4523 0001824  80.1446 279.9891 13.17648451166516
ONEWEB-0530             
1 55796U 23029A   26159.83244344  .00000038  00000+0  62301-4 0  9999
2 55796  87.9180 276.1348 0002360  95.3669 264.7733 13.20770722160041
ONEWEB-0534             
1 55797U 23029B   26159.82065436  .00000026  00000+0  31583-4 0  9997
2 55797  87.9182 276.1379 0001830  99.1857 260.9483 13.20770803160040
ONEWEB-0556             
1 55798U 23029C   26159.82739825  .00000017  00000+0  11068-4 0  9994
2 55798  87.9179 276.1361 0001909  74.8760 285.2584 13.20772450160040
ONEWEB-0562             
1 55799U 23029D   26159.81391397  .00000100  00000+0  21441-3 0  9990
2 55799  87.9179 276.1198 0002503  83.4987 276.6431 13.20770129160043
ONEWEB-0563             
1 55800U 23029E   26160.03614821  .00000059  00000+0  11237-3 0  9994
2 55800  87.9177 276.1058 0001707 100.1820 259.9506 13.20771851160069
ONEWEB-0564             
1 55801U 23029F   26159.87789703  .00000021  00000+0  19298-4 0  9992
2 55801  87.9180 276.1108 0002237  92.5976 267.5413 13.20770098160058
ONEWEB-0638             
1 55802U 23029G   26160.09623247 -.00000142  00000+0 -41793-3 0  9999
2 55802  87.8947 291.3655 0001937  83.5666 276.5684 13.14502773158331
ONEWEB-0639             
1 55803U 23029H   26160.14697058 -.00000002  00000+0 -36699-4 0  9992
2 55803  87.9162 306.5783 0000952 115.7876 244.3355 13.19725127157848
ONEWEB-0640             
1 55804U 23029J   26160.10574662  .00000094  00000+0  22006-3 0  9999
2 55804  87.8947 291.3545 0001575  78.3466 281.7840 13.14502561158358
ONEWEB-0641             
1 55805U 23029K   26160.14222179  .00000108  00000+0  23774-3 0  9996
2 55805  87.9169 306.5678 0001687 100.1443 259.9880 13.19724324157858
